[{"OBJECT_NAME":"SAPPHIRE","OBJECT_ID":"2013-009C","EPOCH":"2026-03-04T02:24:33.509376","MEAN_MOTION":14.35206111,"ECCENTRICITY":0.0010857,"INCLINATION":98.4216,"RA_OF_ASC_NODE":245.0613,"ARG_OF_PERICENTER":196.4582,"MEAN_ANOMALY":163.6253,"EPHEMERIS_TYPE":0,"CLASSIFICATION_TYPE":"U","NORAD_CAT_ID":39088,"ELEMENT_SET_NO":999,"REV_AT_EPOCH":68150,"BSTAR":0.00010695,"MEAN_MOTION_DOT":2.63e-6,"MEAN_MOTION_DDOT":0},{"OBJECT_NAME":"PRAETORIAN SDA_602","OBJECT_ID":"2025-203A","EPOCH":"2026-03-04T03:37:56.100864","MEAN_MOTION":13.84332561,"ECCENTRICITY":0.000719,"INCLINATION":81.3002,"RA_OF_ASC_NODE":108.0701,"ARG_OF_PERICENTER":115.9035,"MEAN_ANOMALY":244.2864,"EPHEMERIS_TYPE":0,"CLASSIFICATION_TYPE":"U","NORAD_CAT_ID":65565,"ELEMENT_SET_NO":999,"REV_AT_EPOCH":2416,"BSTAR":0.00024984,"MEAN_MOTION_DOT":2.91e-6,"MEAN_MOTION_DDOT":0},{"OBJECT_NAME":"PRAETORIAN SDA_603","OBJECT_ID":"2025-203B","EPOCH":"2026-03-04T03:28:48.519264","MEAN_MOTION":13.83900442,"ECCENTRICITY":0.001028,"INCLINATION":81.3059,"RA_OF_ASC_NODE":107.9232,"ARG_OF_PERICENTER":112.6107,"MEAN_ANOMALY":247.6138,"EPHEMERIS_TYPE":0,"CLASSIFICATION_TYPE":"U","NORAD_CAT_ID":65566,"ELEMENT_SET_NO":999,"REV_AT_EPOCH":2417,"BSTAR":7.6498e-5,"MEAN_MOTION_DOT":9.7e-7,"MEAN_MOTION_DDOT":0},{"OBJECT_NAME":"PRAETORIAN SDA_604","OBJECT_ID":"2025-203C","EPOCH":"2026-03-04T04:07:15.455424","MEAN_MOTION":13.83033379,"ECCENTRICITY":0.0006707,"INCLINATION":81.3028,"RA_OF_ASC_NODE":108.144,"ARG_OF_PERICENTER":120.9884,"MEAN_ANOMALY":239.1931,"EPHEMERIS_TYPE":0,"CLASSIFICATION_TYPE":"U","NORAD_CAT_ID":65567,"ELEMENT_SET_NO":999,"REV_AT_EPOCH":2416,"BSTAR":2.6926e-5,"MEAN_MOTION_DOT":4.1e-7,"MEAN_MOTION_DDOT":0},{"OBJECT_NAME":"PRAETORIAN SDA_605","OBJECT_ID":"2025-203D","EPOCH":"2026-03-04T04:03:01.900800","MEAN_MOTION":13.83528037,"ECCENTRICITY":0.0009516,"INCLINATION":81.299,"RA_OF_ASC_NODE":107.9171,"ARG_OF_PERICENTER":111.7201,"MEAN_ANOMALY":248.4969,"EPHEMERIS_TYPE":0,"CLASSIFICATION_TYPE":"U","NORAD_CAT_ID":65568,"ELEMENT_SET_NO":999,"REV_AT_EPOCH":2417,"BSTAR":5.1003e-5,"MEAN_MOTION_DOT":6.8e-7,"MEAN_MOTION_DDOT":0},{"OBJECT_NAME":"PRAETORIAN SDA_606","OBJECT_ID":"2025-203E","EPOCH":"2026-03-04T03:42:13.744800","MEAN_MOTION":13.83530967,"ECCENTRICITY":0.0007144,"INCLINATION":81.3028,"RA_OF_ASC_NODE":108.1174,"ARG_OF_PERICENTER":113.869,"MEAN_ANOMALY":246.3216,"EPHEMERIS_TYPE":0,"CLASSIFICATION_TYPE":"U","NORAD_CAT_ID":65569,"ELEMENT_SET_NO":999,"REV_AT_EPOCH":2416,"BSTAR":0.0002354,"MEAN_MOTION_DOT":2.71e-6,"MEAN_MOTION_DDOT":0},{"OBJECT_NAME":"PRAETORIAN SDA_607","OBJECT_ID":"2025-203F","EPOCH":"2026-03-04T03:41:10.027392","MEAN_MOTION":13.84464619,"ECCENTRICITY":0.0009923,"INCLINATION":81.3002,"RA_OF_ASC_NODE":107.9385,"ARG_OF_PERICENTER":114.4091,"MEAN_ANOMALY":245.8102,"EPHEMERIS_TYPE":0,"CLASSIFICATION_TYPE":"U","NORAD_CAT_ID":65570,"ELEMENT_SET_NO":999,"REV_AT_EPOCH":2417,"BSTAR":0.00024604,"MEAN_MOTION_DOT":2.88e-6,"MEAN_MOTION_DDOT":0},{"OBJECT_NAME":"PRAETORIAN SDA_608","OBJECT_ID":"2025-203G","EPOCH":"2026-03-04T03:59:19.933152","MEAN_MOTION":13.83886067,"ECCENTRICITY":0.0007122,"INCLINATION":81.2982,"RA_OF_ASC_NODE":108.0422,"ARG_OF_PERICENTER":120.5993,"MEAN_ANOMALY":239.5866,"EPHEMERIS_TYPE":0,"CLASSIFICATION_TYPE":"U","NORAD_CAT_ID":65571,"ELEMENT_SET_NO":999,"REV_AT_EPOCH":2416,"BSTAR":5.5142e-5,"MEAN_MOTION_DOT":7.3e-7,"MEAN_MOTION_DDOT":0},{"OBJECT_NAME":"PRAETORIAN SDA_609","OBJECT_ID":"2025-203H","EPOCH":"2026-03-04T03:11:20.741280","MEAN_MOTION":13.84314538,"ECCENTRICITY":0.0008205,"INCLINATION":81.3028,"RA_OF_ASC_NODE":108.0803,"ARG_OF_PERICENTER":114.8293,"MEAN_ANOMALY":245.3718,"EPHEMERIS_TYPE":0,"CLASSIFICATION_TYPE":"U","NORAD_CAT_ID":65572,"ELEMENT_SET_NO":999,"REV_AT_EPOCH":2416,"BSTAR":0.00023965,"MEAN_MOTION_DOT":2.8e-6,"MEAN_MOTION_DDOT":0},{"OBJECT_NAME":"PRAETORIAN SDA_610","OBJECT_ID":"2025-203J","EPOCH":"2026-03-04T03:36:46.259424","MEAN_MOTION":13.84010384,"ECCENTRICITY":0.0007778,"INCLINATION":81.2984,"RA_OF_ASC_NODE":108.0232,"ARG_OF_PERICENTER":116.134,"MEAN_ANOMALY":244.0617,"EPHEMERIS_TYPE":0,"CLASSIFICATION_TYPE":"U","NORAD_CAT_ID":65573,"ELEMENT_SET_NO":999,"REV_AT_EPOCH":2416,"BSTAR":6.424e-5,"MEAN_MOTION_DOT":8.3e-7,"MEAN_MOTION_DDOT":0},{"OBJECT_NAME":"PRAETORIAN SDA_611","OBJECT_ID":"2025-203K","EPOCH":"2026-03-04T02:31:50.923200","MEAN_MOTION":13.8329529,"ECCENTRICITY":0.0006842,"INCLINATION":81.2978,"RA_OF_ASC_NODE":108.1349,"ARG_OF_PERICENTER":124.3085,"MEAN_ANOMALY":235.872,"EPHEMERIS_TYPE":0,"CLASSIFICATION_TYPE":"U","NORAD_CAT_ID":65574,"ELEMENT_SET_NO":999,"REV_AT_EPOCH":2415,"BSTAR":0.00040383,"MEAN_MOTION_DOT":4.55e-6,"MEAN_MOTION_DDOT":0},{"OBJECT_NAME":"PRAETORIAN SDA_612","OBJECT_ID":"2025-203L","EPOCH":"2026-03-04T03:41:45.973248","MEAN_MOTION":13.85043779,"ECCENTRICITY":0.0010461,"INCLINATION":81.3,"RA_OF_ASC_NODE":107.933,"ARG_OF_PERICENTER":116.4262,"MEAN_ANOMALY":243.797,"EPHEMERIS_TYPE":0,"CLASSIFICATION_TYPE":"U","NORAD_CAT_ID":65575,"ELEMENT_SET_NO":999,"REV_AT_EPOCH":2417,"BSTAR":0.00028225,"MEAN_MOTION_DOT":3.31e-6,"MEAN_MOTION_DDOT":0},{"OBJECT_NAME":"PRAETORIAN SDA_613","OBJECT_ID":"2025-203M","EPOCH":"2026-03-04T03:42:15.613632","MEAN_MOTION":13.82987194,"ECCENTRICITY":0.0007005,"INCLINATION":81.2967,"RA_OF_ASC_NODE":108.0274,"ARG_OF_PERICENTER":116.9458,"MEAN_ANOMALY":243.2415,"EPHEMERIS_TYPE":0,"CLASSIFICATION_TYPE":"U","NORAD_CAT_ID":65576,"ELEMENT_SET_NO":999,"REV_AT_EPOCH":2416,"BSTAR":0.00028197,"MEAN_MOTION_DOT":3.2e-6,"MEAN_MOTION_DDOT":0},{"OBJECT_NAME":"PRAETORIAN SDA_614","OBJECT_ID":"2025-203N","EPOCH":"2026-03-04T02:57:42.049440","MEAN_MOTION":13.84764929,"ECCENTRICITY":0.0008349,"INCLINATION":81.2987,"RA_OF_ASC_NODE":108.013,"ARG_OF_PERICENTER":114.0422,"MEAN_ANOMALY":246.161,"EPHEMERIS_TYPE":0,"CLASSIFICATION_TYPE":"U","NORAD_CAT_ID":65577,"ELEMENT_SET_NO":999,"REV_AT_EPOCH":2417,"BSTAR":5.0972e-5,"MEAN_MOTION_DOT":6.9e-7,"MEAN_MOTION_DDOT":0},{"OBJECT_NAME":"PRAETORIAN SDA_615","OBJECT_ID":"2025-203P","EPOCH":"2026-03-04T03:31:03.569376","MEAN_MOTION":13.84422153,"ECCENTRICITY":0.0010267,"INCLINATION":81.2995,"RA_OF_ASC_NODE":107.889,"ARG_OF_PERICENTER":114.5627,"MEAN_ANOMALY":245.66,"EPHEMERIS_TYPE":0,"CLASSIFICATION_TYPE":"U","NORAD_CAT_ID":65578,"ELEMENT_SET_NO":999,"REV_AT_EPOCH":2417,"BSTAR":0.00029716,"MEAN_MOTION_DOT":3.45e-6,"MEAN_MOTION_DDOT":0},{"OBJECT_NAME":"PRAETORIAN SDA_616","OBJECT_ID":"2025-203Q","EPOCH":"2026-03-04T02:30:44.520480","MEAN_MOTION":13.83296477,"ECCENTRICITY":0.000653,"INCLINATION":81.3037,"RA_OF_ASC_NODE":108.2171,"ARG_OF_PERICENTER":123.0881,"MEAN_ANOMALY":237.0903,"EPHEMERIS_TYPE":0,"CLASSIFICATION_TYPE":"U","NORAD_CAT_ID":65579,"ELEMENT_SET_NO":999,"REV_AT_EPOCH":2415,"BSTAR":0.00028988,"MEAN_MOTION_DOT":3.3e-6,"MEAN_MOTION_DDOT":0}]
