SAPPHIRE                
1 39088U 13009C   26063.10038784  .00000263  00000+0  10695-3 0  9993
2 39088  98.4216 245.0613 0010857 196.4582 163.6253 14.35206111681507
PRAETORIAN SDA_602      
1 65565U 25203A   26063.15134376  .00000291  00000+0  24984-3 0  9997
2 65565  81.3002 108.0701 0007190 115.9035 244.2864 13.84332561 24160
PRAETORIAN SDA_603      
1 65566U 25203B   26063.14500601  .00000097  00000+0  76498-4 0  9997
2 65566  81.3059 107.9232 0010280 112.6107 247.6138 13.83900442 24178
PRAETORIAN SDA_604      
1 65567U 25203C   26063.17170666  .00000041  00000+0  26926-4 0  9995
2 65567  81.3028 108.1440 0006707 120.9884 239.1931 13.83033379 24164
PRAETORIAN SDA_605      
1 65568U 25203D   26063.16877200  .00000068  00000+0  51003-4 0  9996
2 65568  81.2990 107.9171 0009516 111.7201 248.4969 13.83528037 24177
PRAETORIAN SDA_606      
1 65569U 25203E   26063.15432575  .00000271  00000+0  23540-3 0  9998
2 65569  81.3028 108.1174 0007144 113.8690 246.3216 13.83530967 24163
PRAETORIAN SDA_607      
1 65570U 25203F   26063.15358828  .00000288  00000+0  24604-3 0  9998
2 65570  81.3002 107.9385 0009923 114.4091 245.8102 13.84464619 24177
PRAETORIAN SDA_608      
1 65571U 25203G   26063.16620293  .00000073  00000+0  55142-4 0  9992
2 65571  81.2982 108.0422 0007122 120.5993 239.5866 13.83886067 24166
PRAETORIAN SDA_609      
1 65572U 25203H   26063.13287895  .00000280  00000+0  23965-3 0  9994
2 65572  81.3028 108.0803 0008205 114.8293 245.3718 13.84314538 24165
PRAETORIAN SDA_610      
1 65573U 25203J   26063.15053541  .00000083  00000+0  64240-4 0  9999
2 65573  81.2984 108.0232 0007778 116.1340 244.0617 13.84010384 24160
PRAETORIAN SDA_611      
1 65574U 25203K   26063.10545050  .00000455  00000+0  40383-3 0  9990
2 65574  81.2978 108.1349 0006842 124.3085 235.8720 13.83295290 24154
PRAETORIAN SDA_612      
1 65575U 25203L   26063.15400432  .00000331  00000+0  28225-3 0  9994
2 65575  81.3000 107.9330 0010461 116.4262 243.7970 13.85043779 24172
PRAETORIAN SDA_613      
1 65576U 25203M   26063.15434738  .00000320  00000+0  28197-3 0  9997
2 65576  81.2967 108.0274 0007005 116.9458 243.2415 13.82987194 24168
PRAETORIAN SDA_614      
1 65577U 25203N   26063.12340335  .00000069  00000+0  50972-4 0  9991
2 65577  81.2987 108.0130 0008349 114.0422 246.1610 13.84764929 24175
PRAETORIAN SDA_615      
1 65578U 25203P   26063.14656909  .00000345  00000+0  29716-3 0  9999
2 65578  81.2995 107.8890 0010267 114.5627 245.6600 13.84422153 24172
PRAETORIAN SDA_616      
1 65579U 25203Q   26063.10468195  .00000330  00000+0  28988-3 0  9998
2 65579  81.3037 108.2171 0006530 123.0881 237.0903 13.83296477 24159
